GPS BIIR-2  (PRN 13)    
1 24876U 97035A   24332.81272777  .00000056  00000+0  00000+0 0  9995
2 24876  55.7279 120.7327 0086002  54.9538 305.8383  2.00561944200593
GPS BIIR-4  (PRN 20)    
1 26360U 00025A   24333.20157241 -.00000085  00000+0  00000+0 0  9993
2 26360  54.7932  42.2099 0040043 222.9378 148.1160  2.00567171179927
GPS BIIR-5  (PRN 22)    
1 26407U 00040A   24333.87265380  .00000012  00000+0  00000+0 0  9998
2 26407  55.0035 237.6333 0139216 297.3285  35.5284  2.00562578178608
GPS BIIR-8  (PRN 16)    
1 27663U 03005A   24333.72949993  .00000011  00000+0  00000+0 0  9999
2 27663  55.0405 237.4501 0141224  48.4801 321.9872  2.00565575159974
GPS BIIR-9  (PRN 21)    
1 27704U 03010A   24333.66129855 -.00000075  00000+0  00000+0 0  9992
2 27704  55.0600 347.1485 0258016 331.6958 204.9978  2.00568845158761
GPS BIIR-11 (PRN 19)    
1 28190U 04009A   24333.75825620 -.00000061  00000+0  00000+0 0  9999
2 28190  55.3133 298.4558 0098579 155.2784  27.8466  2.00573278151603
GPS BIIR-13 (PRN 02)    
1 28474U 04045A   24333.93653917 -.00000073  00000+0  00000+0 0  9995
2 28474  55.3898 347.6124 0166503 297.2455  61.9068  2.00563076147097
GPS BIIRM-1 (PRN 17)    
1 28874U 05038A   24333.72703472 -.00000061  00000+0  00000+0 0  9998
2 28874  55.3589 295.9234 0136962 287.2406 259.9869  2.00574400140494
GPS BIIRM-2 (PRN 31)    
1 29486U 06042A   24333.64285407  .00000110  00000+0  00000+0 0  9992
2 29486  54.6775 173.7715 0105554  43.5922 342.8415  2.00572372133058
GPS BIIRM-3 (PRN 12)    
1 29601U 06052A   24333.02673498  .00000003  00000+0  00000+0 0  9996
2 29601  55.0764 236.4671 0086508  83.3807 277.6557  2.00550064132054
GPS BIIRM-4 (PRN 15)    
1 32260U 07047A   24333.83512614  .00000008  00000+0  00000+0 0  9992
2 32260  53.7024 103.4295 0159482  78.9126 282.8479  2.00556615125471
GPS BIIRM-5 (PRN 29)    
1 32384U 07062A   24333.65747459 -.00000061  00000+0  00000+0 0  9993
2 32384  55.5020 296.8136 0027704 157.1887 202.7325  2.00556038124165
GPS BIIRM-6 (PRN 07)    
1 32711U 08012A   24333.74632353  .00000110  00000+0  00000+0 0  9993
2 32711  54.4529 172.4901 0190526 240.4530 117.7101  2.00573364122418
GPS BIIRM-8 (PRN 05)    
1 35752U 09043A   24333.23947727 -.00000080  00000+0  00000+0 0  9991
2 35752  55.8078  49.7734 0054409  76.0034 289.4630  2.00560041112018
GPS BIIF-1  (PRN 25)    
1 36585U 10022A   24333.81177462  .00000024  00000+0  00000+0 0  9997
2 36585  54.3920 231.3567 0119318  62.5495 113.2615  2.00559952106253
GPS BIIF-3  (PRN 24)    
1 38833U 12053A   24333.43359416  .00000109  00000+0  00000+0 0  9994
2 38833  53.5226 166.7567 0161337  58.8110 302.8317  2.00560923 88098
GPS BIIF-4  (PRN 27)    
1 39166U 13023A   24333.29554397 -.00000062  00000+0  00000+0 0  9990
2 39166  54.9728 291.9566 0127626  45.1164 315.8979  2.00562374 84536
GPS BIIF-5  (PRN 30)    
1 39533U 14008A   24333.29205885  .00000108  00000+0  00000+0 0  9997
2 39533  53.6026 172.3848 0073063 220.3034 139.2298  2.00551655 78337
GPS BIIF-6  (PRN 06)    
1 39741U 14026A   24333.57498511 -.00000073  00000+0  00000+0 0  9991
2 39741  56.6916 353.4967 0034920 313.6291  46.1325  2.00556759 77193
GPS BIIF-7  (PRN 09)    
1 40105U 14045A   24333.16021147  .00000030  00000+0  00000+0 0  9992
2 40105  55.0104 111.0553 0029709 117.7237 242.5570  2.00577138 74726
GPS BIIF-8  (PRN 03)    
1 40294U 14068A   24333.53819956 -.00000075  00000+0  00000+0 0  9990
2 40294  56.5599  52.8409 0054392  65.3081 295.2831  2.00570396 73860
GPS BIIF-9  (PRN 26)    
1 40534U 15013A   24333.67066835  .00000029  00000+0  00000+0 0  9991
2 40534  53.2898 227.5842 0095035  32.4306 328.2225  2.00555795 70484
GPS BIIF-10 (PRN 08)    
1 40730U 15033A   24333.83181171 -.00000058  00000+0  00000+0 0  9993
2 40730  54.4537 290.3268 0099767  20.7440 339.6424  2.00558608 68659
GPS BIIF-11 (PRN 10)    
1 41019U 15062A   24333.39340501 -.00000076  00000+0  00000+0 0  9991
2 41019  56.5385  52.7015 0101684 226.1433 133.0394  2.00562919 66481
GPS BIIF-12 (PRN 32)    
1 41328U 16007A   24333.47655659  .00000031  00000+0  00000+0 0  9996
2 41328  55.2002 111.9221 0082877 238.9396 120.2240  2.00553789 64496
GPS BIII-1  (PRN 04)    
1 43873U 18109A   24333.62359118  .00000037  00000+0  00000+0 0  9992
2 43873  55.3691 114.5282 0032173 192.5197 165.9236  2.00562138 43724
GPS BIII-2  (PRN 18)    
1 44506U 19056A   24333.49755619 -.00000075  00000+0  00000+0 0  9992
2 44506  55.8252 353.5826 0048552 193.9337 337.8738  2.00558456 38723
GPS BIII-3  (PRN 23)    
1 45854U 20041A   24333.32729677 -.00000078  00000+0  00000+0 0  9995
2 45854  56.2586  50.9924 0049903 196.7855 150.6751  2.00570008 32681
GPS BIII-4  (PRN 14)    
1 46826U 20078A   24333.86200913  .00000019  00000+0  00000+0 0  9995
2 46826  54.1203 233.7209 0050986 198.5786 148.5951  2.00560391 30160
GPS BIII-5  (PRN 11)    
1 48859U 21054A   24333.20678855 -.00000078  00000+0  00000+0 0  9996
2 48859  55.3538 355.1697 0019264 228.2020 190.4629  2.00575291 25402
GPS BIII-6  (PRN 28)    
1 55268U 23009A   24333.56755323  .00000112  00000+0  00000+0 0  9993
2 55268  55.0863 170.7236 0002553  73.2251 287.1454  2.00552804 13906
